{"type": "FeatureCollection", "features": [ {"type": "Feature", "properties": {"norad_id": 37084, "name": "COSMOS 2251 DEB", "group": "cosmos-2251-debris", "lat": -31.876177100789842, "lon": 146.86904536510025, "alt_km": 568.6395928944021, "timestamp": "2025-12-14T20:40:32.170474+00:00", "meta": {"OBJECT_NAME": "COSMOS 2251 DEB", "OBJECT_ID": "1993-036BFE", "EPOCH": "2025-12-08T19:15:18.077184", "MEAN_MOTION": 15.00891112, "ECCENTRICITY": 0.00979748, "INCLINATION": 74.0259, "RA_OF_ASC_NODE": 169.4673, "ARG_OF_PERICENTER": 250.8811, "MEAN_ANOMALY": 108.175, "EPHEMERIS_TYPE": 0, "CLASSIFICATION_TYPE": "U", "NORAD_CAT_ID": 37084, "ELEMENT_SET_NO": 999, "REV_AT_EPOCH": 66208, "BSTAR": 0.00080064992, "MEAN_MOTION_DOT": 0.00011267, "MEAN_MOTION_DDOT": 0}, "tle": {"line1": "1 37084U 93036BFE 25342.80229256  .00011267  00000+0  80065-3 0  9991", "line2": "2 37084  74.0259 169.4673 0097974 250.8811 108.1750 15.00891112662080"}}, "geometry": {"type": "Point", "coordinates": [146.86904536510025, -31.876177100789842]}}, {"type": "Feature", "properties": {"norad_id": 37085, "name": "COSMOS 2251 DEB", "group": "cosmos-2251-debris", "lat": -33.24724965024608, "lon": -159.45676815630952, "alt_km": 444.4922182633245, "timestamp": "2025-12-14T20:40:32.170484+00:00", "meta": {"OBJECT_NAME": "COSMOS 2251 DEB", "OBJECT_ID": "1993-036BFF", "EPOCH": "2025-12-13T09:00:31.829760", "MEAN_MOTION": 15.41681088, "ECCENTRICITY": 0.00213633, "INCLINATION": 73.9479, "RA_OF_ASC_NODE": 214.6598, "ARG_OF_PERICENTER": 52.9099, "MEAN_ANOMALY": 307.4058, "EPHEMERIS_TYPE": 0, "CLASSIFICATION_TYPE": "U", "NORAD_CAT_ID": 37085, "ELEMENT_SET_NO": 999, "REV_AT_EPOCH": 67147, "BSTAR": 0.0025075056, "MEAN_MOTION_DOT": 0.00108114, "MEAN_MOTION_DDOT": 0}, "tle": {"line1": "1 37085U 93036BFF 25347.37536840  .00108114  00000+0  25075-2 0  9996", "line2": "2 37085  73.9479 214.6598 0021363  52.9099 307.4058 15.41681088671472"}}, "geometry": {"type": "Point", "coordinates": [-159.45676815630952, -33.24724965024608]}}, {"type": "Feature", "properties": {"norad_id": 37089, "name": "COSMOS 2251 DEB", "group": "cosmos-2251-debris", "lat": 31.516520701348995, "lon": -48.36860875009279, "alt_km": 719.9717360270579, "timestamp": "2025-12-14T20:40:32.170494+00:00", "meta": {"OBJECT_NAME": "COSMOS 2251 DEB", "OBJECT_ID": "1993-036BFK", "EPOCH": "2025-12-14T03:27:49.418208", "MEAN_MOTION": 14.52986462, "ECCENTRICITY": 0.01351412, "INCLINATION": 74.0364, "RA_OF_ASC_NODE": 143.0937, "ARG_OF_PERICENTER": 243.0072, "MEAN_ANOMALY": 115.7239, "EPHEMERIS_TYPE": 0, "CLASSIFICATION_TYPE": "U", "NORAD_CAT_ID": 37089, "ELEMENT_SET_NO": 999, "REV_AT_EPOCH": 66130, "BSTAR": 0.0026411807, "MEAN_MOTION_DOT": 0.00012281, "MEAN_MOTION_DDOT": 0}, "tle": {"line1": "1 37089U 93036BFK 25348.14432197  .00012281  00000+0  26412-2 0  9991", "line2": "2 37089  74.0364 143.0937 0135141 243.0072 115.7239 14.52986462661304"}}, "geometry": {"type": "Point", "coordinates": [-48.36860875009279, 31.516520701348995]}}, {"type": "Feature", "properties": {"norad_id": 37094, "name": "COSMOS 2251 DEB", "group": "cosmos-2251-debris", "lat": 19.484275648538027, "lon": -68.50976733955177, "alt_km": 751.3367456445867, "timestamp": "2025-12-14T20:40:32.170504+00:00", "meta": {"OBJECT_NAME": "COSMOS 2251 DEB", "OBJECT_ID": "1993-036BFQ", "EPOCH": "2025-12-10T15:45:11.030688", "MEAN_MOTION": 14.37808892, "ECCENTRICITY": 0.0084108, "INCLINATION": 74.1091, "RA_OF_ASC_NODE": 124.9809, "ARG_OF_PERICENTER": 91.4784, "MEAN_ANOMALY": 269.6007, "EPHEMERIS_TYPE": 0, "CLASSIFICATION_TYPE": "U", "NORAD_CAT_ID": 37094, "ELEMENT_SET_NO": 999, "REV_AT_EPOCH": 84476, "BSTAR": 0.0015212, "MEAN_MOTION_DOT": 4.753e-05, "MEAN_MOTION_DDOT": 0}, "tle": {"line1": "1 37094U 93036BFQ 25344.65637767  .00004753  00000+0  15212-2 0  9990", "line2": "2 37094  74.1091 124.9809 0084108  91.4784 269.6007 14.37808892844763"}}, "geometry": {"type": "Point", "coordinates": [-68.50976733955177, 19.484275648538027]}}, {"type": "Feature", "properties": {"norad_id": 37095, "name": "COSMOS 2251 DEB", "group": "cosmos-2251-debris", "lat": -2.80032810973801, "lon": 6.985183314970784, "alt_km": 813.8321222910363, "timestamp": "2025-12-14T20:40:32.170514+00:00", "meta": {"OBJECT_NAME": "COSMOS 2251 DEB", "OBJECT_ID": "1993-036BFR", "EPOCH": "2025-12-14T06:06:08.543520", "MEAN_MOTION": 14.03409585, "ECCENTRICITY": 0.019488, "INCLINATION": 73.8479, "RA_OF_ASC_NODE": 187.2421, "ARG_OF_PERICENTER": 244.7942, "MEAN_ANOMALY": 113.2877, "EPHEMERIS_TYPE": 0, "CLASSIFICATION_TYPE": "U", "NORAD_CAT_ID": 37095, "ELEMENT_SET_NO": 999, "REV_AT_EPOCH": 62657, "BSTAR": 0.0017117328, "MEAN_MOTION_DOT": 3.142e-05, "MEAN_MOTION_DDOT": 0}, "tle": {"line1": "1 37095U 93036BFR 25348.25426555  .00003142  00000+0  17117-2 0  9999", "line2": "2 37095  73.8479 187.2421 0194880 244.7942 113.2877 14.03409585626575"}}, "geometry": {"type": "Point", "coordinates": [6.985183314970784, -2.80032810973801]}}, {"type": "Feature", "properties": {"norad_id": 37108, "name": "COSMOS 2251 DEB", "group": "cosmos-2251-debris", "lat": 22.087297305809155, "lon": -110.03133612097616, "alt_km": 688.612718795589, "timestamp": "2025-12-14T20:40:32.170524+00:00", "meta": {"OBJECT_NAME": "COSMOS 2251 DEB", "OBJECT_ID": "1993-036BGE", "EPOCH": "2025-12-13T22:17:49.587360", "MEAN_MOTION": 14.41316868, "ECCENTRICITY": 0.00911807, "INCLINATION": 74.0446, "RA_OF_ASC_NODE": 78.3607, "ARG_OF_PERICENTER": 154.7521, "MEAN_ANOMALY": 205.8134, "EPHEMERIS_TYPE": 0, "CLASSIFICATION_TYPE": "U", "NORAD_CAT_ID": 37108, "ELEMENT_SET_NO": 999, "REV_AT_EPOCH": 85524, "BSTAR": 0.0015372523, "MEAN_MOTION_DOT": 5.202e-05, "MEAN_MOTION_DDOT": 0}, "tle": {"line1": "1 37108U 93036BGE 25347.92904615  .00005202  00000+0  15373-2 0  9996", "line2": "2 37108  74.0446  78.3607 0091180 154.7521 205.8134 14.41316868855240"}}, "geometry": {"type": "Point", "coordinates": [-110.03133612097616, 22.087297305809155]}}, {"type": "Feature", "properties": {"norad_id": 37126, "name": "COSMOS 2251 DEB", "group": "cosmos-2251-debris", "lat": -56.9986059097197, "lon": -35.92705801118333, "alt_km": 629.1812064154528, "timestamp": "2025-12-14T20:40:32.170534+00:00", "meta": {"OBJECT_NAME": "COSMOS 2251 DEB", "OBJECT_ID": "1993-036BGY", "EPOCH": "2025-12-10T07:44:48.551424", "MEAN_MOTION": 14.73059683, "ECCENTRICITY": 0.0123308, "INCLINATION": 73.9536, "RA_OF_ASC_NODE": 359.2652, "ARG_OF_PERICENTER": 237.9672, "MEAN_ANOMALY": 120.9475, "EPHEMERIS_TYPE": 0, "CLASSIFICATION_TYPE": "U", "NORAD_CAT_ID": 37126, "ELEMENT_SET_NO": 999, "REV_AT_EPOCH": 8063, "BSTAR": 0.00038210319, "MEAN_MOTION_DOT": 2.735e-05, "MEAN_MOTION_DDOT": 0}, "tle": {"line1": "1 37126U 93036BGY 25344.32278416  .00002735  00000+0  38210-3 0  9994", "line2": "2 37126  73.9536 359.2652 0123308 237.9672 120.9475 14.73059683 80630"}}, "geometry": {"type": "Point", "coordinates": [-35.92705801118333, -56.9986059097197]}}, {"type": "Feature", "properties": {"norad_id": 37132, "name": "COSMOS 2251 DEB", "group": "cosmos-2251-debris", "lat": 26.552965497901315, "lon": -121.88878960338023, "alt_km": 606.7117462846527, "timestamp": "2025-12-14T20:40:32.170544+00:00", "meta": {"OBJECT_NAME": "COSMOS 2251 DEB", "OBJECT_ID": "1993-036BHE", "EPOCH": "2025-12-13T08:48:34.863552", "MEAN_MOTION": 14.77850138, "ECCENTRICITY": 0.00399242, "INCLINATION": 74.002, "RA_OF_ASC_NODE": 232.8066, "ARG_OF_PERICENTER": 28.724, "MEAN_ANOMALY": 331.6121, "EPHEMERIS_TYPE": 0, "CLASSIFICATION_TYPE": "U", "NORAD_CAT_ID": 37132, "ELEMENT_SET_NO": 999, "REV_AT_EPOCH": 62425, "BSTAR": 0.0017766923, "MEAN_MOTION_DOT": 0.00012937, "MEAN_MOTION_DDOT": 0}, "tle": {"line1": "1 37132U 93036BHE 25347.36707018  .00012937  00000+0  17767-2 0  9991", "line2": "2 37132  74.0020 232.8066 0039924  28.7240 331.6121 14.77850138624258"}}, "geometry": {"type": "Point", "coordinates": [-121.88878960338023, 26.552965497901315]}}, {"type": "Feature", "properties": {"norad_id": 37270, "name": "COSMOS 2251 DEB", "group": "cosmos-2251-debris", "lat": 4.192555334931, "lon": -26.36250010813463, "alt_km": 760.1885015912494, "timestamp": "2025-12-14T20:40:32.170554+00:00", "meta": {"OBJECT_NAME": "COSMOS 2251 DEB", "OBJECT_ID": "1993-036BHJ", "EPOCH": "2025-12-12T22:45:06.098400", "MEAN_MOTION": 13.59808663, "ECCENTRICITY": 0.03985351, "INCLINATION": 73.9378, "RA_OF_ASC_NODE": 335.5481, "ARG_OF_PERICENTER": 347.3958, "MEAN_ANOMALY": 11.7404, "EPHEMERIS_TYPE": 0, "CLASSIFICATION_TYPE": "U", "NORAD_CAT_ID": 37270, "ELEMENT_SET_NO": 999, "REV_AT_EPOCH": 77072, "BSTAR": 0.0064936549, "MEAN_MOTION_DOT": 8.148e-05, "MEAN_MOTION_DDOT": 0}, "tle": {"line1": "1 37270U 93036BHJ 25346.94798725  .00008148  00000+0  64937-2 0  9992", "line2": "2 37270  73.9378 335.5481 0398535 347.3958  11.7404 13.59808663770728"}}, "geometry": {"type": "Point", "coordinates": [-26.36250010813463, 4.192555334931]}}, {"type": "Feature", "properties": {"norad_id": 37278, "name": "COSMOS 2251 DEB", "group": "cosmos-2251-debris", "lat": 73.43035127026891, "lon": 63.41845727249128, "alt_km": 794.1945113797574, "timestamp": "2025-12-14T20:40:32.170564+00:00", "meta": {"OBJECT_NAME": "COSMOS 2251 DEB", "OBJECT_ID": "1993-036BHS", "EPOCH": "2025-12-04T09:26:36.152736", "MEAN_MOTION": 14.15029915, "ECCENTRICITY": 0.029998, "INCLINATION": 73.7864, "RA_OF_ASC_NODE": 4.3592, "ARG_OF_PERICENTER": 188.2556, "MEAN_ANOMALY": 234.4903, "EPHEMERIS_TYPE": 0, "CLASSIFICATION_TYPE": "U", "NORAD_CAT_ID": 37278, "ELEMENT_SET_NO": 999, "REV_AT_EPOCH": 63711, "BSTAR": 0.0023061, "MEAN_MOTION_DOT": 6.884e-05, "MEAN_MOTION_DDOT": 0}, "tle": {"line1": "1 37278U 93036BHS 25338.39347399  .00006884  00000+0  23061-2 0  9995", "line2": "2 37278  73.7864   4.3592 0299980 188.2556 234.4903 14.15029915637119"}}, "geometry": {"type": "Point", "coordinates": [63.41845727249128, 73.43035127026891]}}]}